{
  "type": "FeatureCollection",
  "features": [
    {
      "type": "Feature",
      "properties": {
        "norad_id": 34540,
        "name": "IRIDIUM 33 DEB",
        "group": "iridium-33-debris",
        "lat": -47.66472106742027,
        "lon": -57.310527159659856,
        "alt_km": 661.8356173176062,
        "timestamp": "2025-12-14T14:39:29.754347+00:00",
        "meta_object_name": "IRIDIUM 33 DEB",
        "meta_object_id": "1997-051JH",
        "meta_epoch": "2025-12-13T21:13:41.307168",
        "meta_mean_motion": 14.75357802,
        "meta_eccentricity": 0.00166291,
        "meta_inclination": 86.3099,
        "meta_ra_of_asc_node": 307.0836,
        "meta_arg_of_pericenter": 155.1807,
        "meta_mean_anomaly": 262.2011,
        "meta_ephemeris_type": 0,
        "meta_classification_type": "U",
        "meta_norad_cat_id": 34540,
        "meta_element_set_no": 999,
        "meta_rev_at_epoch": 89038,
        "meta_bstar": 0.0017757378,
        "meta_mean_motion_dot": 0.00012101,
        "meta_mean_motion_ddot": 0,
        "tle_line1": "1 34540U 97051JH  25347.88450587  .00012101  00000+0  17757-2 0  9997",
        "tle_line2": "2 34540  86.3099 307.0836 0016629 155.1807 262.2011 14.75357802890385"
      },
      "geometry": {
        "type": "Point",
        "coordinates": [
          -57.310527159659856,
          -47.66472106742027
        ]
      }
    },
    {
      "type": "Feature",
      "properties": {
        "norad_id": 34648,
        "name": "IRIDIUM 33 DEB",
        "group": "iridium-33-debris",
        "lat": 31.737076646383958,
        "lon": -76.57098295472997,
        "alt_km": 870.2479632684754,
        "timestamp": "2025-12-14T14:39:29.754357+00:00",
        "meta_object_name": "IRIDIUM 33 DEB",
        "meta_object_id": "1997-051JZ",
        "meta_epoch": "2025-12-13T19:47:40.836480",
        "meta_mean_motion": 14.11548438,
        "meta_eccentricity": 0.01824148,
        "meta_inclination": 86.3898,
        "meta_ra_of_asc_node": 281.5085,
        "meta_arg_of_pericenter": 295.4937,
        "meta_mean_anomaly": 62.7476,
        "meta_ephemeris_type": 0,
        "meta_classification_type": "U",
        "meta_norad_cat_id": 34648,
        "meta_element_set_no": 999,
        "meta_rev_at_epoch": 84976,
        "meta_bstar": 0.007354752,
        "meta_mean_motion_dot": 0.00015643,
        "meta_mean_motion_ddot": 0,
        "tle_line1": "1 34648U 97051JZ  25347.82477820  .00015643  00000+0  73548-2 0  9993",
        "tle_line2": "2 34648  86.3898 281.5085 0182414 295.4937  62.7476 14.11548438849762"
      },
      "geometry": {
        "type": "Point",
        "coordinates": [
          -76.57098295472997,
          31.737076646383958
        ]
      }
    },
    {
      "type": "Feature",
      "properties": {
        "norad_id": 34651,
        "name": "IRIDIUM 33 DEB",
        "group": "iridium-33-debris",
        "lat": -3.4150441358167583,
        "lon": -39.99630010762526,
        "alt_km": 710.212231449791,
        "timestamp": "2025-12-14T14:39:29.754367+00:00",
        "meta_object_name": "IRIDIUM 33 DEB",
        "meta_object_id": "1997-051KC",
        "meta_epoch": "2025-12-13T20:57:14.690016",
        "meta_mean_motion": 14.25844913,
        "meta_eccentricity": 0.01421121,
        "meta_inclination": 86.2827,
        "meta_ra_of_asc_node": 140.0953,
        "meta_arg_of_pericenter": 200.3325,
        "meta_mean_anomaly": 159.2175,
        "meta_ephemeris_type": 0,
        "meta_classification_type": "U",
        "meta_norad_cat_id": 34651,
        "meta_element_set_no": 999,
        "meta_rev_at_epoch": 85912,
        "meta_bstar": 0.0036592158,
        "meta_mean_motion_dot": 9.701e-05,
        "meta_mean_motion_ddot": 0,
        "tle_line1": "1 34651U 97051KC  25347.87308669  .00009701  00000+0  36592-2 0  9992",
        "tle_line2": "2 34651  86.2827 140.0953 0142112 200.3325 159.2175 14.25844913859128"
      },
      "geometry": {
        "type": "Point",
        "coordinates": [
          -39.99630010762526,
          -3.4150441358167583
        ]
      }
    },
    {
      "type": "Feature",
      "properties": {
        "norad_id": 34652,
        "name": "IRIDIUM 33 DEB",
        "group": "iridium-33-debris",
        "lat": 61.276169474682504,
        "lon": 152.44539664795235,
        "alt_km": 698.7032631794,
        "timestamp": "2025-12-14T14:39:29.754377+00:00",
        "meta_object_name": "IRIDIUM 33 DEB",
        "meta_object_id": "1997-051KD",
        "meta_epoch": "2025-12-13T23:36:33.899616",
        "meta_mean_motion": 14.62075678,
        "meta_eccentricity": 0.00258131,
        "meta_inclination": 86.3313,
        "meta_ra_of_asc_node": 339.4479,
        "meta_arg_of_pericenter": 293.8029,
        "meta_mean_anomaly": 126.4351,
        "meta_ephemeris_type": 0,
        "meta_classification_type": "U",
        "meta_norad_cat_id": 34652,
        "meta_element_set_no": 999,
        "meta_rev_at_epoch": 88502,
        "meta_bstar": 0.0011103852,
        "meta_mean_motion_dot": 5.623e-05,
        "meta_mean_motion_ddot": 0,
        "tle_line1": "1 34652U 97051KD  25347.98372569  .00005623  00000+0  11104-2 0  9996",
        "tle_line2": "2 34652  86.3313 339.4479 0025813 293.8029 126.4351 14.62075678885028"
      },
      "geometry": {
        "type": "Point",
        "coordinates": [
          152.44539664795235,
          61.276169474682504
        ]
      }
    },
    {
      "type": "Feature",
      "properties": {
        "norad_id": 34690,
        "name": "IRIDIUM 33 DEB",
        "group": "iridium-33-debris",
        "lat": -65.46230547392926,
        "lon": 28.203885963862962,
        "alt_km": 716.2215666659158,
        "timestamp": "2025-12-14T14:39:29.754388+00:00",
        "meta_object_name": "IRIDIUM 33 DEB",
        "meta_object_id": "1997-051KM",
        "meta_epoch": "2025-12-13T14:54:06.857280",
        "meta_mean_motion": 14.55100621,
        "meta_eccentricity": 0.00107565,
        "meta_inclination": 86.3785,
        "meta_ra_of_asc_node": 36.6083,
        "meta_arg_of_pericenter": 26.8254,
        "meta_mean_anomaly": 125.7841,
        "meta_ephemeris_type": 0,
        "meta_classification_type": "U",
        "meta_norad_cat_id": 34690,
        "meta_element_set_no": 999,
        "meta_rev_at_epoch": 88107,
        "meta_bstar": 0.00059932597,
        "meta_mean_motion_dot": 2.608e-05,
        "meta_mean_motion_ddot": 0,
        "tle_line1": "1 34690U 97051KM  25347.62091270  .00002608  00000+0  59933-3 0  9999",
        "tle_line2": "2 34690  86.3785  36.6083 0010756  26.8254 125.7841 14.55100621881070"
      },
      "geometry": {
        "type": "Point",
        "coordinates": [
          28.203885963862962,
          -65.46230547392926
        ]
      }
    },
    {
      "type": "Feature",
      "properties": {
        "norad_id": 34693,
        "name": "IRIDIUM 33 DEB",
        "group": "iridium-33-debris",
        "lat": 65.11526698045849,
        "lon": 114.88726302712718,
        "alt_km": 470.3173298497368,
        "timestamp": "2025-12-14T14:39:29.754398+00:00",
        "meta_object_name": "IRIDIUM 33 DEB",
        "meta_object_id": "1997-051KQ",
        "meta_epoch": "2025-12-13T21:06:52.559136",
        "meta_mean_motion": 15.28305314,
        "meta_eccentricity": 0.00133969,
        "meta_inclination": 86.305,
        "meta_ra_of_asc_node": 303.2591,
        "meta_arg_of_pericenter": 51.3124,
        "meta_mean_anomaly": 3.8172,
        "meta_ephemeris_type": 0,
        "meta_classification_type": "U",
        "meta_norad_cat_id": 34693,
        "meta_element_set_no": 999,
        "meta_rev_at_epoch": 88932,
        "meta_bstar": 0.0049107744,
        "meta_mean_motion_dot": 0.00137946,
        "meta_mean_motion_ddot": 0,
        "tle_line1": "1 34693U 97051KQ  25347.87977499  .00137946  00000+0  49108-2 0  9991",
        "tle_line2": "2 34693  86.3050 303.2591 0013396  51.3124   3.8172 15.28305314889323"
      },
      "geometry": {
        "type": "Point",
        "coordinates": [
          114.88726302712718,
          65.11526698045849
        ]
      }
    },
    {
      "type": "Feature",
      "properties": {
        "norad_id": 34696,
        "name": "IRIDIUM 33 DEB",
        "group": "iridium-33-debris",
        "lat": 39.367495780682624,
        "lon": -156.48567077061912,
        "alt_km": 624.4040437013355,
        "timestamp": "2025-12-14T14:39:29.754409+00:00",
        "meta_object_name": "IRIDIUM 33 DEB",
        "meta_object_id": "1997-051KT",
        "meta_epoch": "2025-12-13T03:54:02.435616",
        "meta_mean_motion": 14.65143747,
        "meta_eccentricity": 0.00741248,
        "meta_inclination": 86.1855,
        "meta_ra_of_asc_node": 27.3258,
        "meta_arg_of_pericenter": 165.9902,
        "meta_mean_anomaly": 260.687,
        "meta_ephemeris_type": 0,
        "meta_classification_type": "U",
        "meta_norad_cat_id": 34696,
        "meta_element_set_no": 999,
        "meta_rev_at_epoch": 86679,
        "meta_bstar": 0.0067723801,
        "meta_mean_motion_dot": 0.00038084,
        "meta_mean_motion_ddot": 0,
        "tle_line1": "1 34696U 97051KT  25347.16252819  .00038084  00000+0  67724-2 0  9995",
        "tle_line2": "2 34696  86.1855  27.3258 0074124 165.9902 260.6870 14.65143747866797"
      },
      "geometry": {
        "type": "Point",
        "coordinates": [
          -156.48567077061912,
          39.367495780682624
        ]
      }
    }
  ]
}